NORAD_CAT_ID,OBJECT_NAME,OBJECT_TYPE,EPOCH,MEAN_MOTION,ECCENTRICITY,INCLINATION,RA_OF_ASC_NODE,ARG_OF_PERICENTER,MEAN_ANOMALY,BSTAR,MEAN_MOTION_DOT,MEAN_MOTION_DDOT,TLE_LINE0,TLE_LINE1,TLE_LINE2,SEMIMAJOR_AXIS,PERIOD,APOGEE,PERIGEE,DECAYED
53559.0,STARLINK-4508,PAYLOAD,2024-05-06 21:57:16,15.0886562,0.0001473,53.2164,199.8376,71.6345,288.4807,0.00063398,9.823e-05,0.0,0 STARLINK-4508,1 53559U 22101AJ  24127.91477741  .00009823  00000-0  63398-3 0  9993,2 53559  53.2164 199.8376 0001473  71.6345 288.4807 15.08865620 94892,6917.802,95.436,540.686,538.648,0.0
53559.0,STARLINK-4508,PAYLOAD,2024-05-07 12:15:45,15.08837111,0.0001236,53.2161,197.1621,75.3023,284.8106,7.6931e-05,9.37e-06,0.0,0 STARLINK-4508,1 53559U 22101AJ  24128.51094187  .00000937  00000-0  76931-4 0  9994,2 53559  53.2161 197.1621 0001236  75.3023 284.8106 15.08837111 94980,6917.889,95.438,540.609,538.899,0.0
53559.0,STARLINK-4508,PAYLOAD,2024-05-07 13:51:08,15.08838323,0.0001235,53.216,196.8645,76.0309,284.082,0.00026194,3.883e-05,0.0,0 STARLINK-4508,1 53559U 22101AJ  24128.57718231  .00003883  00000-0  26194-3 0  9991,2 53559  53.2160 196.8645 0001235  76.0309 284.0820 15.08838323 94997,6917.886,95.438,540.605,538.896,0.0
53559.0,STARLINK-4508,PAYLOAD,2024-05-08 10:31:09,15.08857008,0.0001257,53.2149,192.998,74.0401,286.0729,0.0011429,0.00017956,0.0,0 STARLINK-4508,1 53559U 22101AJ  24129.43830327  .00017956  00000-0  11429-2 0  9998,2 53559  53.2149 192.9980 0001257  74.0401 286.0729 15.08857008 95125,6917.828,95.436,540.563,538.824,0.0
53559.0,STARLINK-4508,PAYLOAD,2024-05-08 21:38:51,15.08854173,0.0001225,53.2148,190.9165,72.2755,287.8371,0.00061041,9.444e-05,0.0,0 STARLINK-4508,1 53559U 22101AJ  24129.90198089  .00009444  00000-0  61041-3 0  9991,2 53559  53.2148 190.9165 0001225  72.2755 287.8371 15.08854173 95193,6917.837,95.437,540.55,538.855,0.0
53559.0,STARLINK-4508,PAYLOAD,2024-05-09 04:00:23,15.08853973,0.0001654,53.2143,189.726,86.0638,274.0543,0.00055869,8.618e-05,0.0,0 STARLINK-4508,1 53559U 22101AJ  24130.16694166  .00008618  00000-0  55869-3 0  9991,2 53559  53.2143 189.7260 0001654  86.0638 274.0543 15.08853973 95230,6917.838,95.437,540.847,538.558,0.0
53559.0,STARLINK-4508,PAYLOAD,2024-05-09 10:21:56,15.08846688,0.0001443,53.2166,188.5365,91.3901,268.7257,0.00030323,4.542e-05,0.0,0 STARLINK-4508,1 53559U 22101AJ  24130.43190179  .00004542  00000-0  30323-3 0  9996,2 53559  53.2166 188.5365 0001443  91.3901 268.7257 15.08846688 95277,6917.86,95.437,540.723,538.727,0.0
53559.0,STARLINK-4508,PAYLOAD,2024-05-10 10:12:42,15.08860243,0.0001278,53.2155,184.0756,87.5866,272.5272,0.00039081,5.941e-05,0.0,0 STARLINK-4508,1 53559U 22101AJ  24131.42549462  .00005941  00000-0  39081-3 0  9993,2 53559  53.2155 184.0756 0001278  87.5866 272.5272 15.08860243 95423,6917.819,95.436,540.568,538.799,0.0
53559.0,STARLINK-4508,PAYLOAD,2024-05-11 03:41:57,15.08853869,0.0001336,53.2153,180.8052,81.2926,278.8218,0.00030912,4.637e-05,0.0,0 STARLINK-4508,1 53559U 22101AJ  24132.15413394  .00004637  00000-0  30912-3 0  9993,2 53559  53.2153 180.8052 0001336  81.2926 278.8218 15.08853869 95534,6917.838,95.437,540.627,538.779,0.0
53559.0,STARLINK-4508,PAYLOAD,2024-05-11 10:03:28,15.08922261,0.0001542,53.2162,179.6152,86.375,273.7419,0.0035277,0.00056432,0.0,0 STARLINK-4508,1 53559U 22101AJ  24132.41908306  .00056432  00000-0  35277-2 0  9992,2 53559  53.2162 179.6152 0001542  86.3750 273.7419 15.08922261 95575,6917.629,95.432,540.561,538.427,0.0
53559.0,STARLINK-4508,PAYLOAD,2024-05-11 19:35:45,15.08919808,0.0001638,53.2157,177.8316,79.2086,280.909,0.0028408,0.00045314,0.0,0 STARLINK-4508,1 53559U 22101AJ  24132.81650435  .00045314  00000-0  28408-2 0  9998,2 53559  53.2157 177.8316 0001638  79.2086 280.9090 15.08919808 95635,6917.636,95.433,540.635,538.368,0.0
53559.0,STARLINK-4508,PAYLOAD,2024-05-12 03:32:43,15.0873183,4.84e-05,53.216,176.3429,64.694,295.4102,-0.0056787,-0.00089277,0.0,0 STARLINK-4508,1 53559U 22101AJ  24133.14772530 -.00089277  00000-0 -56787-2 0  9995,2 53559  53.2160 176.3429 0000484  64.6940 295.4102 15.08731830 95680,6918.211,95.444,540.411,539.741,0.0
53559.0,STARLINK-4508,PAYLOAD,2024-05-12 09:54:19,15.08702074,0.0001075,53.2153,175.1565,83.1093,277.0021,-0.0013202,-0.00021158,0.0,0 STARLINK-4508,1 53559U 22101AJ  24133.41272484 -.00021158  00000-0 -13202-2 0  9997,2 53559  53.2153 175.1565 0001075  83.1093 277.0021 15.08702074 95721,6918.302,95.446,540.911,539.423,0.0
53559.0,STARLINK-4508,PAYLOAD,2024-05-12 19:26:39,15.0876909,9.32e-05,53.2163,173.3722,98.2302,261.8796,0.0023123,0.00036632,0.0,0 STARLINK-4508,1 53559U 22101AJ  24133.81017595  .00036632  00000-0  23123-2 0  9995,2 53559  53.2163 173.3722 0000932  98.2302 261.8796 15.08769090 95785,6918.097,95.442,540.607,539.317,0.0
53559.0,STARLINK-4508,PAYLOAD,2024-05-13 09:45:08,15.08844249,0.0001683,53.216,170.6989,110.6899,249.4273,0.0036823,0.00058812,0.0,0 STARLINK-4508,1 53559U 22101AJ  24134.40635027  .00058812  00000-0  36823-2 0  9992,2 53559  53.2160 170.6989 0001683 110.6899 249.4273 15.08844249 95873,6917.867,95.437,540.897,538.568,0.0
53559.0,STARLINK-4508,PAYLOAD,2024-05-14 11:11:17,15.08866398,0.0001384,53.215,165.9381,104.3082,255.8064,0.00059694,9.232e-05,0.0,0 STARLINK-4508,1 53559U 22101AJ  24135.46617655  .00009232  00000-0  59694-3 0  9990,2 53559  53.2150 165.9381 0001384 104.3082 255.8064 15.08866398 96034,6917.8,95.436,540.622,538.707,0.0
53559.0,STARLINK-4508,PAYLOAD,2024-05-14 19:08:12,15.08870869,0.0001385,53.2153,164.4509,103.9943,256.1204,0.00058358,9.02e-05,0.0,0 STARLINK-4508,1 53559U 22101AJ  24135.79737022  .00009020  00000-0  58358-3 0  9998,2 53559  53.2153 164.4509 0001385 103.9943 256.1204 15.08870869 96088,6917.786,95.436,540.609,538.693,0.0
53559.0,STARLINK-4508,PAYLOAD,2024-05-15 09:26:39,15.088894,0.000136,53.2154,161.7742,103.6411,256.4732,0.0008323,0.00013001,0.0,0 STARLINK-4508,1 53559U 22101AJ  24136.39351359  .00013001  00000-0  83230-3 0  9991,2 53559  53.2154 161.7742 0001360 103.6411 256.4732 15.08889400 96178,6917.729,95.434,540.535,538.654,0.0
53559.0,STARLINK-4508,PAYLOAD,2024-05-16 01:20:30,15.08869392,0.0001375,53.2154,158.8003,98.4561,261.6587,0.00026856,3.992e-05,0.0,0 STARLINK-4508,1 53559U 22101AJ  24137.05590892  .00003992  00000-0  26856-3 0  9991,2 53559  53.2154 158.8003 0001375  98.4561 261.6587 15.08869392 96273,6917.791,95.436,540.607,538.704,0.0
53559.0,STARLINK-4508,PAYLOAD,2024-05-16 07:42:03,15.08862897,0.0001583,53.2155,157.611,91.556,268.5613,0.00042417,6.473e-05,0.0,0 STARLINK-4508,1 53559U 22101AJ  24137.32086866  .00006473  00000-0  42417-3 0  9990,2 53559  53.2155 157.6110 0001583  91.5560 268.5613 15.08862897 96318,6917.81,95.436,540.77,538.58,0.0
53559.0,STARLINK-4508,PAYLOAD,2024-05-16 18:49:45,15.08842984,0.0001346,53.2151,155.5294,92.7058,267.4088,0.00042019,6.406e-05,0.0,0 STARLINK-4508,1 53559U 22101AJ  24137.78455051  .00006406  00000-0  42019-3 0  9990,2 53559  53.2151 155.5294 0001346  92.7058 267.4088 15.08842984 96382,6917.871,95.437,540.667,538.805,0.0
53559.0,STARLINK-4508,PAYLOAD,2024-05-17 04:22:04,15.08837084,0.0001682,53.2162,153.7449,102.8095,257.3085,0.00011764,1.585e-05,0.0,0 STARLINK-4508,1 53559U 22101AJ  24138.18199332  .00001585  00000-0  11764-3 0  9998,2 53559  53.2162 153.7449 0001682 102.8095 257.3085 15.08837084 96440,6917.889,95.438,540.918,538.591,0.0
53559.0,STARLINK-4508,PAYLOAD,2024-05-17 07:32:50,15.08838933,0.0001515,53.2165,153.1496,102.4343,257.6819,-0.00019657,-3.415e-05,0.0,0 STARLINK-4508,1 53559U 22101AJ  24138.31447368 -.00003415  00000-0 -19657-3 0  9993,2 53559  53.2165 153.1496 0001515 102.4343 257.6819 15.08838933 96460,6917.884,95.438,540.797,538.701,0.0
53559.0,STARLINK-4508,PAYLOAD,2024-05-18 10:34:23,15.08857919,0.0001551,53.2164,148.0961,96.316,263.8009,0.00036756,5.569e-05,0.0,0 STARLINK-4508,1 53559U 22101AJ  24139.44054439  .00005569  00000-0  36756-3 0  9990,2 53559  53.2164 148.0961 0001551  96.3160 263.8009 15.08857919 96631,6917.826,95.436,540.764,538.618,0.0
53559.0,STARLINK-4508,PAYLOAD,2024-05-19 04:03:38,15.08832326,0.0001428,53.2161,144.8237,91.1857,268.9298,-4.0336e-05,-9.3e-06,0.0,0 STARLINK-4508,1 53559U 22101AJ  24140.16919745 -.00000930  00000-0 -40336-4 0  9990,2 53559  53.2161 144.8237 0001428  91.1857 268.9298 15.08832326 96740,6917.904,95.438,540.757,538.781,0.0
53559.0,STARLINK-4508,PAYLOAD,2024-05-19 07:14:24,15.08831026,0.0001353,53.2149,144.2234,78.163,281.9513,-0.00011222,-2.073e-05,0.0,0 STARLINK-4508,1 53559U 22101AJ  24140.30167804 -.00002073  00000-0 -11222-3 0  9998,2 53559  53.2149 144.2234 0001353  78.1630 281.9513 15.08831026 96761,6917.908,95.438,540.709,538.837,0.0
53559.0,STARLINK-4508,PAYLOAD,2024-05-20 08:40:35,15.08842629,0.0001453,53.2156,139.4697,91.0034,269.1125,0.00011558,1.552e-05,0.0,0 STARLINK-4508,1 53559U 22101AJ  24141.36151720  .00001552  00000-0  11558-3 0  9996,2 53559  53.2156 139.4697 0001453  91.0034 269.1125 15.08842629 96927,6917.872,95.437,540.743,538.732,0.0
53559.0,STARLINK-4508,PAYLOAD,2024-05-21 06:55:58,15.08849002,0.0001491,53.2156,135.3084,83.3505,276.7657,0.00034225,5.164e-05,0.0,0 STARLINK-4508,1 53559U 22101AJ  24142.28887731  .00005164  00000-0  34225-3 0  9995,2 53559  53.2156 135.3084 0001491  83.3505 276.7657 15.08849002 97063,6917.853,95.437,540.749,538.686,0.0
53559.0,STARLINK-4508,PAYLOAD,2024-05-22 05:11:22,15.0884664,0.0001555,53.2158,131.1461,86.2006,273.9164,0.0001165,1.567e-05,0.0,0 STARLINK-4508,1 53559U 22101AJ  24143.21623472  .00001567  00000-0  11650-3 0  9999,2 53559  53.2158 131.1461 0001555  86.2006 273.9164 15.08846640 97200,6917.86,95.437,540.801,538.649,0.0
53559.0,STARLINK-4508,PAYLOAD,2024-05-22 06:46:45,15.08847549,0.0001562,53.216,130.8485,85.2052,274.9119,0.00013485,1.859e-05,0.0,0 STARLINK-4508,1 53559U 22101AJ  24143.28247447  .00001859  00000-0  13485-3 0  9992,2 53559  53.2160 130.8485 0001562  85.2052 274.9119 15.08847549 97214,6917.857,95.437,540.803,538.642,0.0
